[{"OBJECT_NAME":"GLOBALSTAR M091","OBJECT_ID":"2011-033C","EPOCH":"2026-03-09T12:19:51.159648","MEAN_MOTION":12.62270327,"ECCENTRICITY":8.483e-5,"INCLINATION":51.9991,"RA_OF_ASC_NODE":185.3633,"ARG_OF_PERICENTER":103.6138,"MEAN_ANOMALY":336.8704,"EPHEMERIS_TYPE":0,"CLASSIFICATION_TYPE":"U","NORAD_CAT_ID":37741,"ELEMENT_SET_NO":999,"REV_AT_EPOCH":67669,"BSTAR":0.00014268137,"MEAN_MOTION_DOT":-7.8e-7,"MEAN_MOTION_DDOT":0},{"OBJECT_NAME":"COSMOS 2143","OBJECT_ID":"1991-033A","EPOCH":"2026-03-09T22:58:52.767552","MEAN_MOTION":12.63925728,"ECCENTRICITY":0.00118643,"INCLINATION":82.58,"RA_OF_ASC_NODE":6.294,"ARG_OF_PERICENTER":280.8377,"MEAN_ANOMALY":148.2961,"EPHEMERIS_TYPE":0,"CLASSIFICATION_TYPE":"U","NORAD_CAT_ID":21299,"ELEMENT_SET_NO":999,"REV_AT_EPOCH":60603,"BSTAR":0.00011021657,"MEAN_MOTION_DOT":3.1e-7,"MEAN_MOTION_DDOT":0}]
